ONEWEB-0113             
1 48050U 21025J   22191.19165033  .00000074  00000+0  16648-3 0  9998
2 48050  87.9006 245.8994 0001987 101.0260 259.1093 13.13467844 64814
ONEWEB-0112             
1 48051U 21025K   22190.64720482 -.00000278  00000+0 -79683-3 0  9999
2 48051  87.9057 245.8955 0002048  98.1589 261.9772 13.13471842 64758
ONEWEB-0156             
1 48052U 21025L   22190.65615419 -.00000390  00000+0 -11028-2 0  9997
2 48052  87.9013 245.9843 0002043  96.2312 263.9050 13.13470400 64734
ONEWEB-0161             
1 48053U 21025M   22191.16251496  .00000156  00000+0  39330-3 0  9991
2 48053  87.9055 245.8338 0002289  97.0204 263.1186 13.13468781 64742
ONEWEB-0158             
1 48054U 21025N   22190.66960369  .00000014  00000+0  37381-5 0  9991
2 48054  87.9004 245.9945 0001843 109.9183 250.2145 13.13471238 64794
ONEWEB-0157             
1 48055U 21025P   22190.61583383  .00000195  00000+0  49873-3 0  9991
2 48055  87.8980 245.9566 0002308  88.5401 271.5992 13.13467700 64726
ONEWEB-0162             
1 48056U 21025Q   22190.65392703 -.00000218  00000+0 -63252-3 0  9995
2 48056  87.9057 245.9083 0001972  92.1009 268.0346 13.13472215 64707
ONEWEB-0155             
1 48057U 21025R   22191.13339665  .00000265  00000+0  69110-3 0  9997
2 48057  87.8962 245.8177 0002170  99.6518 260.4857 13.13469418 64910
ONEWEB-0149             
1 48058U 21025S   22191.15356574  .00000212  00000+0  54621-3 0  9991
2 48058  87.9000 245.8603 0001796  80.7013 279.4319 13.13469433 64722
ONEWEB-0148             
1 48059U 21025T   22190.66065205 -.00000081  00000+0 -25585-3 0  9998
2 48059  87.9030 245.9370 0002259  71.3305 288.8069 13.13471137 64778
ONEWEB-0160             
1 48060U 21025U   22190.67856217  .00000300  00000+0  78571-3 0  9997
2 48060  87.9036 245.9287 0001565 134.3919 225.7338 13.13471013 64720
ONEWEB-0163             
1 48061U 21025V   22190.66288831 -.00000024  00000+0 -10120-3 0  9999
2 48061  87.9018 246.0323 0002589  88.0989 272.0436 13.13468552 64844
ONEWEB-0159             
1 48062U 21025W   22190.65167321 -.00000489  00000+0 -13740-2 0  9994
2 48062  87.9066 245.9486 0002395  85.1562 274.9841 13.13470612 64768
ONEWEB-0164             
1 48063U 21025X   22190.63374687 -.00000272  00000+0 -77922-3 0  9991
2 48063  87.9029 246.0577 0002303 104.2771 255.8614 13.13467242 64744
ONEWEB-0167             
1 48064U 21025Y   22190.66512792  .00000015  00000+0  71083-5 0  9993
2 48064  87.8982 245.9463 0002347  89.3623 270.7775 13.13471164 64732
ONEWEB-0166             
1 48065U 21025Z   22191.14235603  .00000429  00000+0  11400-2 0  9994
2 48065  87.9052 245.7986 0002242  92.7906 267.3480 13.13471753 64870
ONEWEB-0151             
1 48066U 21025AA  22190.68752006  .00000317  00000+0  83246-3 0  9998
2 48066  87.8993 245.9616 0002338 106.3227 253.8159 13.13470361 64754
ONEWEB-0170             
1 48067U 21025AB  22190.61806964  .00000129  00000+0  31751-3 0  9990
2 48067  87.9025 246.0495 0002316 122.7917 237.3436 13.13470026 64701
ONEWEB-0168             
1 48068U 21025AC  22190.68080990  .00000229  00000+0  59242-3 0  9997
2 48068  87.9006 245.9961 0002225  94.0761 266.0622 13.13471418 64728
ONEWEB-0173             
1 48069U 21025AD  22190.67408552  .00000236  00000+0  61141-3 0  9994
2 48069  87.9006 246.0063 0002614  95.4542 264.6885 13.13472439 64963
ONEWEB-0171             
1 48070U 21025AE  22190.63152288 -.00000145  00000+0 -43243-3 0  9998
2 48070  87.9062 245.9239 0002119  86.7917 273.3455 13.13467768 64777
ONEWEB-0172             
1 48071U 21025AF  22190.61246891  .00000285  00000+0  74479-3 0  9999
2 48071  87.8984 246.0484 0002406  99.2379 260.9022 13.13470974 65668
ONEWEB-0174             
1 48072U 21025AG  22190.67185849  .00000199  00000+0  51026-3 0  9998
2 48072  87.9067 245.9447 0002130  70.7451 289.3909 13.13469963 64998
ONEWEB-0175             
1 48073U 21025AH  22190.62254567  .00000037  00000+0  66878-4 0  9991
2 48073  87.9024 245.9137 0002262 112.0595 248.0775 13.13467171 64647
ONEWEB-0177             
1 48074U 21025AJ  22190.63599695 -.00000297  00000+0 -84919-3 0  9992
2 48074  87.9020 246.0273 0002787  88.6480 271.4968 13.13469657 64836
ONEWEB-0178             
1 48075U 21025AK  22190.65279709 -.00000225  00000+0 -65082-3 0  9997
2 48075  87.9065 245.9355 0002300  92.0985 268.0408 13.13469825 64888
ONEWEB-0108             
1 48076U 21025AL  22190.61359484  .00000273  00000+0  71377-3 0  9998
2 48076  87.8990 245.9773 0001692  92.6551 267.4771 13.13470737 64809
ONEWEB-0169             
1 48077U 21025AM  22190.64494434 -.00000347  00000+0 -98531-3 0  9992
2 48077  87.9021 246.0406 0001908  90.6623 269.4724 13.13467371 63460
ONEWEB-0176             
1 48210U 21031A   22190.62818756 -.00000192  00000+0 -55219-3 0  9997
2 48210  87.9031 215.6752 0002313  89.7704 270.3691 13.14500674 59325
ONEWEB-0184             
1 48211U 21031B   22190.75505348  .00000182  00000+0  45747-3 0  9994
2 48211  87.9004 215.5710 0002871 117.0478 243.0945 13.14503783 59313
ONEWEB-0179             
1 48212U 21031C   22191.10392093 -.00000335  00000+0 -93701-3 0  9991
2 48212  87.9008 215.4999 0002424  86.5457 273.5949 13.14503004 59405
ONEWEB-0180             
1 48213U 21031D   22190.75717072  .00000191  00000+0  48195-3 0  9995
2 48213  87.9002 215.5666 0002222  86.4667 273.6717 13.14504791 59240
ONEWEB-0218             
1 48214U 21031E   22190.62607209 -.00000200  00000+0 -57372-3 0  9992
2 48214  87.8994 215.5562 0003306 108.1099 252.0391 13.14503192 59388
ONEWEB-0209             
1 48215U 21031F   22191.14834600  .00000272  00000+0  69805-3 0  9999
2 48215  87.9020 215.5188 0002242  89.8157 270.3229 13.14500581 59452
ONEWEB-0198             
1 48216U 21031G   22190.60070354  .00000256  00000+0  65509-3 0  9997
2 48216  87.9009 215.6466 0002829  95.3180 264.8273 13.14503652 59492
ONEWEB-0189             
1 48217U 21031H   22190.61339271  .00000097  00000+0  22636-3 0  9992
2 48217  87.9003 215.5804 0002823  93.6406 266.5046 13.14503255 59236
ONEWEB-0196             
1 48218U 21031J   22191.12507108  .00000139  00000+0  33954-3 0  9998
2 48218  87.9022 215.5060 0002218  95.2730 264.8653 13.14504787 59290
ONEWEB-0183             
1 48219U 21031K   22190.56476514 -.00000181  00000+0 -52402-3 0  9990
2 48219  87.9026 215.6336 0002119  86.8831 273.2541 13.14501659 59329
ONEWEB-0185             
1 48220U 21031L   22190.59328080 -.00013241  00000+0 -35763-1 0  9999
2 48220  87.9015 215.6138 0002039  84.9616 275.1747 13.14574971 59258
ONEWEB-0187             
1 48221U 21031M   22190.56898088 -.00000104  00000+0 -31506-3 0  9994
2 48221  87.9024 215.6353 0002217  85.5781 274.5602 13.14505301 59261
ONEWEB-0192             
1 48222U 21031N   22191.07432681  .00000058  00000+0  12324-3 0  9998
2 48222  87.9009 215.4908 0002303  96.6436 263.4956 13.14505371 59250
ONEWEB-0219             
1 48223U 21031P   22190.59857807  .00000258  00000+0  66041-3 0  9993
2 48223  87.9004 215.5735 0002260  89.7883 270.3506 13.14504082 59386
ONEWEB-0202             
1 48224U 21031Q   22190.57744910  .00000059  00000+0  12469-3 0  9996
2 48224  87.9024 215.6367 0003323 101.4629 258.6874 13.14502449 59362
ONEWEB-0204             
1 48225U 21031R   22191.09439249 -.00000186  00000+0 -53710-3 0  9998
2 48225  87.9043 215.5518 0001348  88.2828 271.8456 13.14503658 59332
ONEWEB-0205             
1 48226U 21031S   22191.12083241 -.00002793  00000+0 -75696-2 0  9992
2 48226  87.9015 215.5096 0002635  90.5808 269.5623 13.14515761 59357
ONEWEB-0206             
1 48227U 21031T   22190.63665336 -.00000209  00000+0 -59747-3 0  9999
2 48227  87.8994 215.5565 0002204  83.8333 276.3047 13.14504743 59235
ONEWEB-0182             
1 48228U 21031U   22190.63031855 -.00000214  00000+0 -61292-3 0  9997
2 48228  87.9041 215.6567 0002288  84.3544 275.7846 13.14500271 59440
ONEWEB-0186             
1 48229U 21031V   22190.56688010 -.00000169  00000+0 -48925-3 0  9998
2 48229  87.9010 215.5971 0002375  90.6118 269.5284 13.14504566 59380
ONEWEB-0181             
1 48230U 21031W   22191.15255836 -.00000027  00000+0 -10657-3 0  9996
2 48230  87.9025 215.5401 0002208  92.3494 267.7888 13.14505765 59323
ONEWEB-0188             
1 48231U 21031X   22190.58380046  .00000127  00000+0  30814-3 0  9991
2 48231  87.9028 215.6527 0002254  87.5836 272.5552 13.14505014 59143
ONEWEB-0220             
1 48232U 21031Y   22191.15467270  .00000196  00000+0  49404-3 0  9992
2 48232  87.9003 215.4613 0002551  86.3658 273.7764 13.14500938 59485
ONEWEB-0165             
1 48233U 21031Z   22190.57532431  .00000000  00000+0 -34708-4 0  9997
2 48233  87.9022 215.6397 0002432  88.3383 271.8025 13.14504652 59366
ONEWEB-0199             
1 48234U 21031AA  22190.63454286 -.00000261  00000+0 -73910-3 0  9993
2 48234  87.9013 215.6102 0002324  90.3268 269.8128 13.14501607 59274
ONEWEB-0203             
1 48235U 21031AB  22191.15678686  .00000024  00000+0  29096-4 0  9996
2 48235  87.9033 215.4915 0002154 106.0430 254.0937 13.14501547 59350
ONEWEB-0197             
1 48236U 21031AC  22191.14410430 -.00001732  00000+0 -47070-2 0  9996
2 48236  87.9019 215.5113 0002416  89.2156 270.9251 13.14513587 59267
ONEWEB-0194             
1 48237U 21031AD  22190.57956315  .00000045  00000+0  86124-4 0  9999
2 48237  87.9012 215.6160 0001876 105.6562 254.4775 13.14501610 59360
ONEWEB-0193             
1 48238U 21031AE  22190.59646559  .00000226  00000+0  57560-3 0  9990
2 48238  87.9019 215.6200 0002312  98.1368 262.0024 13.14503815 59315
ONEWEB-0191             
1 48239U 21031AF  22190.75928531  .00000156  00000+0  38734-3 0  9996
2 48239  87.9006 215.5774 0002108  97.8400 262.2969 13.14500667 59191
ONEWEB-0195             
1 48240U 21031AG  22191.11764955  .00000015  00000+0  69569-5 0  9993
2 48240  87.9010 215.4950 0002774  93.8052 266.3395 13.14504938 59228
